IRIDIUM 119             
1 42959U 17061E   25193.84239349 -.00000031  00000+0 -18138-4 0  9996
2 42959  86.4011 167.0776 0002375  81.8611 278.2854 14.34217278406170
IRIDIUM 107             
1 42960U 17061F   25193.65211447  .00000003  00000+0 -60768-5 0  9991
2 42960  86.4010 167.1761 0002083  74.0932 286.0494 14.34217593406157
IRIDIUM 132             
1 42961U 17061G   25193.86776346 -.00000033  00000+0 -18686-4 0  9994
2 42961  86.4010 167.0681 0002138  83.9205 276.2234 14.34217168406185
IRIDIUM 136             
1 42962U 17061H   25193.89947619  .00000010  00000+0 -33324-5 0  9992
2 42962  86.4010 167.0597 0002301  80.5675 279.5780 14.34217556406204
IRIDIUM 139             
1 42963U 17061J   25193.90581675  .00000092  00000+0  25933-4 0  9996
2 42963  86.4007 167.1133 0002191  81.0101 279.1343 14.34217132406217
IRIDIUM 125             
1 42964U 17061K   25193.89313390  .00000012  00000+0 -27189-5 0  9991
2 42964  86.4014 167.1736 0002504  73.0384 287.1087 14.34217607406229
IRIDIUM 135             
1 43070U 17083A   25193.72772236  .00000057  00000+0  13222-4 0  9994
2 43070  86.3966 103.9464 0002150  89.6321 270.5121 14.34217821395499
IRIDIUM 138             
1 43071U 17083B   25193.75309387  .00000068  00000+0  17215-4 0  9999
2 43071  86.3954 103.6032 0002744  81.7685 278.3822 14.34217885395483
